{"type": "FeatureCollection", "features": [{"type": "Feature", "properties": {"mmsi": "DEMO-MMSI-001", "vessel_type": 1004}, "geometry": {"type": "LineString", "coordinates": [[80.445, 13.34], [80.4375, 13.325], [80.42999999999999, 13.31], [80.4225, 13.295], [80.4075, 13.265], [80.39999999999999, 13.25], [80.3925, 13.235], [80.38499999999999, 13.22], [80.3775, 13.205], [80.36999999999999, 13.19], [80.3625, 13.175]]}}, {"type": "Feature", "properties": {"mmsi": "DEMO-MMSI-002", "vessel_type": 1003}, "geometry": {"type": "LineString", "coordinates": [[80.425, 13.43], [80.4175, 13.415], [80.41, 13.4], [80.4025, 13.385], [80.395, 13.37], [80.3875, 13.355], [80.38, 13.34], [80.3725, 13.325], [80.365, 13.31], [80.3575, 13.295], [80.35, 13.28], [80.3425, 13.265]]}}, {"type": "Feature", "properties": {"mmsi": "DEMO-MMSI-003", "vessel_type": 1003}, "geometry": {"type": "LineString", "coordinates": [[80.42, 13.3], [80.435, 13.295], [80.45, 13.29], [80.465, 13.285], [80.48, 13.28], [80.495, 13.275], [80.51, 13.27], [80.525, 13.265], [80.54, 13.260000000000002], [80.555, 13.255], [80.57000000000001, 13.25], [80.58500000000001, 13.245]]}}, {"type": "Feature", "properties": {"mmsi": "DEMO-MMSI-004", "vessel_type": 1010}, "geometry": {"type": "LineString", "coordinates": [[80.59, 13.49], [80.58, 13.48], [80.57000000000001, 13.47], [80.56, 13.46], [80.55, 13.45], [80.54, 13.44], [80.53, 13.43], [80.52000000000001, 13.42], [80.51, 13.41], [80.5, 13.4], [80.49000000000001, 13.39], [80.48, 13.38]]}}]}