{"type": "FeatureCollection", "features": [{"type": "Feature", "properties": {"class": "oil_slick"}, "geometry": {"type": "Polygon", "coordinates": [[[80.282421875, 13.23046875], [80.282421875, 13.22998046875], [80.281640625, 13.22998046875], [80.281640625, 13.2294921875], [80.280859375, 13.2294921875], [80.280859375, 13.22900390625], [80.28046875, 13.22900390625], [80.28046875, 13.22802734375], [80.280078125, 13.22802734375], [80.280078125, 13.2265625], [80.2796875, 13.2265625], [80.2796875, 13.22021484375], [80.280078125, 13.22021484375], [80.280078125, 13.2177734375], [80.28046875, 13.2177734375], [80.28046875, 13.2158203125], [80.280859375, 13.2158203125], [80.280859375, 13.2138671875], [80.28125, 13.2138671875], [80.28125, 13.21240234375], [80.281640625, 13.21240234375], [80.281640625, 13.2109375], [80.28203125, 13.2109375], [80.28203125, 13.20947265625], [80.282421875, 13.20947265625], [80.282421875, 13.2080078125], [80.2828125, 13.2080078125], [80.2828125, 13.20654296875], [80.283203125, 13.20654296875], [80.283203125, 13.20556640625], [80.28359375, 13.20556640625], [80.28359375, 13.2041015625], [80.283984375, 13.2041015625], [80.283984375, 13.203125], [80.284375, 13.203125], [80.284375, 13.2021484375], [80.284765625, 13.2021484375], [80.284765625, 13.20068359375], [80.28515625, 13.20068359375], [80.28515625, 13.19970703125], [80.285546875, 13.19970703125], [80.285546875, 13.19873046875], [80.2859375, 13.19873046875], [80.2859375, 13.19775390625], [80.286328125, 13.19775390625], [80.286328125, 13.1962890625], [80.28671875, 13.1962890625], [80.28671875, 13.1953125], [80.287109375, 13.1953125], [80.287109375, 13.1943359375], [80.2875, 13.1943359375], [80.2875, 13.193359375], [80.287890625, 13.193359375], [80.287890625, 13.1923828125], [80.28828125, 13.1923828125], [80.28828125, 13.19140625], [80.288671875, 13.19140625], [80.288671875, 13.1904296875], [80.2890625, 13.1904296875], [80.2890625, 13.189453125], [80.289453125, 13.189453125], [80.289453125, 13.1884765625], [80.28984375, 13.1884765625], [80.28984375, 13.1875], [80.290234375, 13.1875], [80.290234375, 13.1865234375], [80.290625, 13.1865234375], [80.290625, 13.185546875], [80.291015625, 13.185546875], [80.291015625, 13.18505859375], [80.29140625, 13.18505859375], [80.29140625, 13.18408203125], [80.291796875, 13.18408203125], [80.291796875, 13.18310546875], [80.2921875, 13.18310546875], [80.2921875, 13.18212890625], [80.292578125, 13.18212890625], [80.292578125, 13.18115234375], [80.29296875, 13.18115234375], [80.29296875, 13.18017578125], [80.293359375, 13.18017578125], [80.293359375, 13.1796875], [80.29375, 13.1796875], [80.29375, 13.1787109375], [80.294140625, 13.1787109375], [80.294140625, 13.177734375], [80.29453125, 13.177734375], [80.29453125, 13.1767578125], [80.294921875, 13.1767578125], [80.294921875, 13.17626953125], [80.2953125, 13.17626953125], [80.2953125, 13.17529296875], [80.295703125, 13.17529296875], [80.295703125, 13.17431640625], [80.29609375, 13.17431640625], [80.29609375, 13.173828125], [80.296484375, 13.173828125], [80.296484375, 13.1728515625], [80.296875, 13.1728515625], [80.296875, 13.171875], [80.297265625, 13.171875], [80.297265625, 13.17138671875], [80.29765625, 13.17138671875], [80.29765625, 13.17041015625], [80.298046875, 13.17041015625], [80.298046875, 13.16943359375], [80.2984375, 13.16943359375], [80.2984375, 13.1689453125], [80.298828125, 13.1689453125], [80.298828125, 13.16796875], [80.29921875, 13.16796875], [80.29921875, 13.1669921875], [80.299609375, 13.1669921875], [80.299609375, 13.16650390625], [80.3, 13.16650390625], [80.3, 13.16552734375], [80.300390625, 13.16552734375], [80.300390625, 13.1650390625], [80.30078125, 13.1650390625], [80.30078125, 13.1640625], [80.301171875, 13.1640625], [80.301171875, 13.1630859375], [80.3015625, 13.1630859375], [80.3015625, 13.16259765625], [80.301953125, 13.16259765625], [80.301953125, 13.16162109375], [80.30234375, 13.16162109375], [80.30234375, 13.1611328125], [80.302734375, 13.1611328125], [80.302734375, 13.16015625], [80.303125, 13.16015625], [80.303125, 13.15966796875], [80.303515625, 13.15966796875], [80.303515625, 13.15869140625], [80.30390625, 13.15869140625], [80.30390625, 13.158203125], [80.304296875, 13.158203125], [80.304296875, 13.1572265625], [80.3046875, 13.1572265625], [80.3046875, 13.15673828125], [80.305078125, 13.15673828125], [80.305078125, 13.15576171875], [80.30546875, 13.15576171875], [80.30546875, 13.1552734375], [80.305859375, 13.1552734375], [80.305859375, 13.154296875], [80.30625, 13.154296875], [80.30625, 13.15380859375], [80.306640625, 13.15380859375], [80.306640625, 13.15283203125], [80.30703125, 13.15283203125], [80.30703125, 13.15234375], [80.307421875, 13.15234375], [80.307421875, 13.1513671875], [80.3078125, 13.1513671875], [80.3078125, 13.15087890625], [80.308203125, 13.15087890625], [80.308203125, 13.14990234375], [80.30859375, 13.14990234375], [80.30859375, 13.1494140625], [80.308984375, 13.1494140625], [80.308984375, 13.1484375], [80.309375, 13.1484375], [80.309375, 13.14794921875], [80.309765625, 13.14794921875], [80.309765625, 13.1474609375], [80.31015625, 13.1474609375], [80.31015625, 13.146484375], [80.310546875, 13.146484375], [80.310546875, 13.14599609375], [80.3109375, 13.14599609375], [80.3109375, 13.14501953125], [80.311328125, 13.14501953125], [80.311328125, 13.14453125], [80.31171875, 13.14453125], [80.31171875, 13.14404296875], [80.312109375, 13.14404296875], [80.312109375, 13.14306640625], [80.3125, 13.14306640625], [80.3125, 13.142578125], [80.312890625, 13.142578125], [80.312890625, 13.14208984375], [80.31328125, 13.14208984375], [80.31328125, 13.14111328125], [80.313671875, 13.14111328125], [80.313671875, 13.140625], [80.3140625, 13.140625], [80.3140625, 13.1396484375], [80.314453125, 13.1396484375], [80.314453125, 13.13916015625], [80.31484375, 13.13916015625], [80.31484375, 13.138671875], [80.315234375, 13.138671875], [80.315234375, 13.1376953125], [80.315625, 13.1376953125], [80.315625, 13.13720703125], [80.316015625, 13.13720703125], [80.316015625, 13.13671875], [80.31640625, 13.13671875], [80.31640625, 13.1357421875], [80.316796875, 13.1357421875], [80.316796875, 13.13525390625], [80.3171875, 13.13525390625], [80.3171875, 13.134765625], [80.317578125, 13.134765625], [80.317578125, 13.13427734375], [80.31796875, 13.13427734375], [80.31796875, 13.13330078125], [80.318359375, 13.13330078125], [80.318359375, 13.1328125], [80.31875, 13.1328125], [80.31875, 13.13232421875], [80.319140625, 13.13232421875], [80.319140625, 13.13134765625], [80.31953125, 13.13134765625], [80.31953125, 13.130859375], [80.319921875, 13.130859375], [80.319921875, 13.13037109375], [80.3203125, 13.13037109375], [80.3203125, 13.1298828125], [80.320703125, 13.1298828125], [80.320703125, 13.12890625], [80.32109375, 13.12890625], [80.32109375, 13.12841796875], [80.321484375, 13.12841796875], [80.321484375, 13.1279296875], [80.321875, 13.1279296875], [80.321875, 13.12744140625], [80.322265625, 13.12744140625], [80.322265625, 13.12646484375], [80.32265625, 13.12646484375], [80.32265625, 13.1259765625], [80.323046875, 13.1259765625], [80.323046875, 13.12548828125], [80.3234375, 13.12548828125], [80.3234375, 13.125], [80.323828125, 13.125], [80.323828125, 13.1240234375], [80.32421875, 13.1240234375], [80.32421875, 13.12353515625], [80.324609375, 13.12353515625], [80.324609375, 13.123046875], [80.325, 13.123046875], [80.325, 13.12255859375], [80.325390625, 13.12255859375], [80.325390625, 13.1220703125], [80.32578125, 13.1220703125], [80.32578125, 13.12109375], [80.326171875, 13.12109375], [80.326171875, 13.12060546875], [80.3265625, 13.12060546875], [80.3265625, 13.1201171875], [80.326953125, 13.1201171875], [80.326953125, 13.11962890625], [80.32734375, 13.11962890625], [80.32734375, 13.119140625], [80.327734375, 13.119140625], [80.327734375, 13.11865234375], [80.328125, 13.11865234375], [80.328125, 13.1181640625], [80.328515625, 13.1181640625], [80.328515625, 13.1171875], [80.32890625, 13.1171875], [80.32890625, 13.11669921875], [80.329296875, 13.11669921875], [80.329296875, 13.1162109375], [80.3296875, 13.1162109375], [80.3296875, 13.11572265625], [80.330078125, 13.11572265625], [80.330078125, 13.115234375], [80.33046875, 13.115234375], [80.33046875, 13.11474609375], [80.330859375, 13.11474609375], [80.330859375, 13.1142578125], [80.33125, 13.1142578125], [80.33125, 13.11376953125], [80.331640625, 13.11376953125], [80.331640625, 13.11279296875], [80.33203125, 13.11279296875], [80.33203125, 13.1123046875], [80.332421875, 13.1123046875], [80.332421875, 13.11181640625], [80.3328125, 13.11181640625], [80.3328125, 13.111328125], [80.333203125, 13.111328125], [80.333203125, 13.11083984375], [80.33359375, 13.11083984375], [80.33359375, 13.1103515625], [80.333984375, 13.1103515625], [80.333984375, 13.10986328125], [80.334375, 13.10986328125], [80.334375, 13.109375], [80.334765625, 13.109375], [80.334765625, 13.10888671875], [80.33515625, 13.10888671875], [80.33515625, 13.1083984375], [80.335546875, 13.1083984375], [80.335546875, 13.10791015625], [80.3359375, 13.10791015625], [80.3359375, 13.107421875], [80.336328125, 13.107421875], [80.336328125, 13.10693359375], [80.33671875, 13.10693359375], [80.33671875, 13.1064453125], [80.337109375, 13.1064453125], [80.337109375, 13.10595703125], [80.3375, 13.10595703125], [80.3375, 13.10546875], [80.337890625, 13.10546875], [80.337890625, 13.10498046875], [80.33828125, 13.10498046875], [80.33828125, 13.1044921875], [80.338671875, 13.1044921875], [80.338671875, 13.10400390625], [80.3390625, 13.10400390625], [80.3390625, 13.103515625], [80.339453125, 13.103515625], [80.339453125, 13.10302734375], [80.33984375, 13.10302734375], [80.33984375, 13.1025390625], [80.340234375, 13.1025390625], [80.340234375, 13.10205078125], [80.340625, 13.10205078125], [80.340625, 13.1015625], [80.341015625, 13.1015625], [80.341015625, 13.10107421875], [80.34140625, 13.10107421875], [80.34140625, 13.1005859375], [80.3421875, 13.1005859375], [80.3421875, 13.10009765625], [80.342578125, 13.10009765625], [80.342578125, 13.099609375], [80.34296875, 13.099609375], [80.34296875, 13.09912109375], [80.343359375, 13.09912109375], [80.343359375, 13.0986328125], [80.34375, 13.0986328125], [80.34375, 13.09814453125], [80.344140625, 13.09814453125], [80.344140625, 13.09765625], [80.344921875, 13.09765625], [80.344921875, 13.09716796875], [80.3453125, 13.09716796875], [80.3453125, 13.0966796875], [80.345703125, 13.0966796875], [80.345703125, 13.09619140625], [80.34609375, 13.09619140625], [80.34609375, 13.095703125], [80.346875, 13.095703125], [80.346875, 13.09521484375], [80.347265625, 13.09521484375], [80.347265625, 13.0947265625], [80.34765625, 13.0947265625], [80.34765625, 13.09423828125], [80.3484375, 13.09423828125], [80.3484375, 13.09375], [80.348828125, 13.09375], [80.348828125, 13.09326171875], [80.349609375, 13.09326171875], [80.349609375, 13.0927734375], [80.35, 13.0927734375], [80.35, 13.09228515625], [80.35078125, 13.09228515625], [80.35078125, 13.091796875], [80.3515625, 13.091796875], [80.3515625, 13.09130859375], [80.351953125, 13.09130859375], [80.351953125, 13.0908203125], [80.352734375, 13.0908203125], [80.352734375, 13.09033203125], [80.35390625, 13.09033203125], [80.35390625, 13.08984375], [80.355078125, 13.08984375], [80.355078125, 13.08935546875], [80.35859375, 13.08935546875], [80.35859375, 13.08984375], [80.359375, 13.08984375], [80.359375, 13.09033203125], [80.359765625, 13.09033203125], [80.359765625, 13.09130859375], [80.36015625, 13.09130859375], [80.36015625, 13.09228515625], [80.360546875, 13.09228515625], [80.360546875, 13.09521484375], [80.3609375, 13.09521484375], [80.3609375, 13.09619140625], [80.360546875, 13.09619140625], [80.360546875, 13.1005859375], [80.36015625, 13.1005859375], [80.36015625, 13.1025390625], [80.359765625, 13.1025390625], [80.359765625, 13.1044921875], [80.359375, 13.1044921875], [80.359375, 13.1064453125], [80.358984375, 13.1064453125], [80.358984375, 13.10791015625], [80.35859375, 13.10791015625], [80.35859375, 13.109375], [80.358203125, 13.109375], [80.358203125, 13.11083984375], [80.3578125, 13.11083984375], [80.3578125, 13.11181640625], [80.357421875, 13.11181640625], [80.357421875, 13.11328125], [80.35703125, 13.11328125], [80.35703125, 13.11474609375], [80.356640625, 13.11474609375], [80.356640625, 13.11572265625], [80.35625, 13.11572265625], [80.35625, 13.11669921875], [80.355859375, 13.11669921875], [80.355859375, 13.1181640625], [80.35546875, 13.1181640625], [80.35546875, 13.119140625], [80.355078125, 13.119140625], [80.355078125, 13.1201171875], [80.3546875, 13.1201171875], [80.3546875, 13.12158203125], [80.354296875, 13.12158203125], [80.354296875, 13.12255859375], [80.35390625, 13.12255859375], [80.35390625, 13.12353515625], [80.353515625, 13.12353515625], [80.353515625, 13.12451171875], [80.353125, 13.12451171875], [80.353125, 13.12548828125], [80.352734375, 13.12548828125], [80.352734375, 13.12646484375], [80.35234375, 13.12646484375], [80.35234375, 13.12744140625], [80.351953125, 13.12744140625], [80.351953125, 13.12841796875], [80.3515625, 13.12841796875], [80.3515625, 13.12939453125], [80.351171875, 13.12939453125], [80.351171875, 13.13037109375], [80.35078125, 13.13037109375], [80.35078125, 13.13134765625], [80.350390625, 13.13134765625], [80.350390625, 13.13232421875], [80.35, 13.13232421875], [80.35, 13.13330078125], [80.349609375, 13.13330078125], [80.349609375, 13.13427734375], [80.34921875, 13.13427734375], [80.34921875, 13.13525390625], [80.348828125, 13.13525390625], [80.348828125, 13.1357421875], [80.3484375, 13.1357421875], [80.3484375, 13.13671875], [80.348046875, 13.13671875], [80.348046875, 13.1376953125], [80.34765625, 13.1376953125], [80.34765625, 13.138671875], [80.347265625, 13.138671875], [80.347265625, 13.1396484375], [80.346875, 13.1396484375], [80.346875, 13.14013671875], [80.346484375, 13.14013671875], [80.346484375, 13.14111328125], [80.34609375, 13.14111328125], [80.34609375, 13.14208984375], [80.345703125, 13.14208984375], [80.345703125, 13.14306640625], [80.3453125, 13.14306640625], [80.3453125, 13.1435546875], [80.344921875, 13.1435546875], [80.344921875, 13.14453125], [80.34453125, 13.14453125], [80.34453125, 13.1455078125], [80.344140625, 13.1455078125], [80.344140625, 13.14599609375], [80.34375, 13.14599609375], [80.34375, 13.14697265625], [80.343359375, 13.14697265625], [80.343359375, 13.14794921875], [80.34296875, 13.14794921875], [80.34296875, 13.1484375], [80.342578125, 13.1484375], [80.342578125, 13.1494140625], [80.3421875, 13.1494140625], [80.3421875, 13.150390625], [80.341796875, 13.150390625], [80.341796875, 13.15087890625], [80.34140625, 13.15087890625], [80.34140625, 13.15185546875], [80.341015625, 13.15185546875], [80.341015625, 13.15283203125], [80.340625, 13.15283203125], [80.340625, 13.1533203125], [80.340234375, 13.1533203125], [80.340234375, 13.154296875], [80.33984375, 13.154296875], [80.33984375, 13.15478515625], [80.339453125, 13.15478515625], [80.339453125, 13.15576171875], [80.3390625, 13.15576171875], [80.3390625, 13.15673828125], [80.338671875, 13.15673828125], [80.338671875, 13.1572265625], [80.33828125, 13.1572265625], [80.33828125, 13.158203125], [80.337890625, 13.158203125], [80.337890625, 13.15869140625], [80.3375, 13.15869140625], [80.3375, 13.15966796875], [80.337109375, 13.15966796875], [80.337109375, 13.16015625], [80.33671875, 13.16015625], [80.33671875, 13.1611328125], [80.336328125, 13.1611328125], [80.336328125, 13.16162109375], [80.3359375, 13.16162109375], [80.3359375, 13.16259765625], [80.335546875, 13.16259765625], [80.335546875, 13.1630859375], [80.33515625, 13.1630859375], [80.33515625, 13.1640625], [80.334765625, 13.1640625], [80.334765625, 13.16455078125], [80.334375, 13.16455078125], [80.334375, 13.16552734375], [80.333984375, 13.16552734375], [80.333984375, 13.166015625], [80.33359375, 13.166015625], [80.33359375, 13.1669921875], [80.333203125, 13.1669921875], [80.333203125, 13.16748046875], [80.3328125, 13.16748046875], [80.3328125, 13.16845703125], [80.332421875, 13.16845703125], [80.332421875, 13.1689453125], [80.33203125, 13.1689453125], [80.33203125, 13.169921875], [80.331640625, 13.169921875], [80.331640625, 13.17041015625], [80.33125, 13.17041015625], [80.33125, 13.1708984375], [80.330859375, 13.1708984375], [80.330859375, 13.171875], [80.33046875, 13.171875], [80.33046875, 13.17236328125], [80.330078125, 13.17236328125], [80.330078125, 13.17333984375], [80.3296875, 13.17333984375], [80.3296875, 13.173828125], [80.329296875, 13.173828125], [80.329296875, 13.17431640625], [80.32890625, 13.17431640625], [80.32890625, 13.17529296875], [80.328515625, 13.17529296875], [80.328515625, 13.17578125], [80.328125, 13.17578125], [80.328125, 13.1767578125], [80.327734375, 13.1767578125], [80.327734375, 13.17724609375], [80.32734375, 13.17724609375], [80.32734375, 13.177734375], [80.326953125, 13.177734375], [80.326953125, 13.1787109375], [80.3265625, 13.1787109375], [80.3265625, 13.17919921875], [80.326171875, 13.17919921875], [80.326171875, 13.1796875], [80.32578125, 13.1796875], [80.32578125, 13.1806640625], [80.325390625, 13.1806640625], [80.325390625, 13.18115234375], [80.325, 13.18115234375], [80.325, 13.181640625], [80.324609375, 13.181640625], [80.324609375, 13.1826171875], [80.32421875, 13.1826171875], [80.32421875, 13.18310546875], [80.323828125, 13.18310546875], [80.323828125, 13.18359375], [80.3234375, 13.18359375], [80.3234375, 13.1845703125], [80.323046875, 13.1845703125], [80.323046875, 13.18505859375], [80.32265625, 13.18505859375], [80.32265625, 13.185546875], [80.322265625, 13.185546875], [80.322265625, 13.1865234375], [80.321875, 13.1865234375], [80.321875, 13.18701171875], [80.321484375, 13.18701171875], [80.321484375, 13.1875], [80.32109375, 13.1875], [80.32109375, 13.1884765625], [80.320703125, 13.1884765625], [80.320703125, 13.18896484375], [80.3203125, 13.18896484375], [80.3203125, 13.189453125], [80.319921875, 13.189453125], [80.319921875, 13.18994140625], [80.31953125, 13.18994140625], [80.31953125, 13.19091796875], [80.319140625, 13.19091796875], [80.319140625, 13.19140625], [80.31875, 13.19140625], [80.31875, 13.19189453125], [80.318359375, 13.19189453125], [80.318359375, 13.1923828125], [80.31796875, 13.1923828125], [80.31796875, 13.193359375], [80.317578125, 13.193359375], [80.317578125, 13.19384765625], [80.3171875, 13.19384765625], [80.3171875, 13.1943359375], [80.316796875, 13.1943359375], [80.316796875, 13.19482421875], [80.31640625, 13.19482421875], [80.31640625, 13.1953125], [80.316015625, 13.1953125], [80.316015625, 13.1962890625], [80.315625, 13.1962890625], [80.315625, 13.19677734375], [80.315234375, 13.19677734375], [80.315234375, 13.197265625], [80.31484375, 13.197265625], [80.31484375, 13.19775390625], [80.314453125, 13.19775390625], [80.314453125, 13.1982421875], [80.3140625, 13.1982421875], [80.3140625, 13.19921875], [80.313671875, 13.19921875], [80.313671875, 13.19970703125], [80.31328125, 13.19970703125], [80.31328125, 13.2001953125], [80.312890625, 13.2001953125], [80.312890625, 13.20068359375], [80.3125, 13.20068359375], [80.3125, 13.201171875], [80.312109375, 13.201171875], [80.312109375, 13.20166015625], [80.31171875, 13.20166015625], [80.31171875, 13.2021484375], [80.311328125, 13.2021484375], [80.311328125, 13.203125], [80.3109375, 13.203125], [80.3109375, 13.20361328125], [80.310546875, 13.20361328125], [80.310546875, 13.2041015625], [80.31015625, 13.2041015625], [80.31015625, 13.20458984375], [80.309765625, 13.20458984375], [80.309765625, 13.205078125], [80.309375, 13.205078125], [80.309375, 13.20556640625], [80.308984375, 13.20556640625], [80.308984375, 13.2060546875], [80.30859375, 13.2060546875], [80.30859375, 13.20654296875], [80.308203125, 13.20654296875], [80.308203125, 13.20703125], [80.3078125, 13.20703125], [80.3078125, 13.20751953125], [80.307421875, 13.20751953125], [80.307421875, 13.20849609375], [80.30703125, 13.20849609375], [80.30703125, 13.208984375], [80.306640625, 13.208984375], [80.306640625, 13.20947265625], [80.30625, 13.20947265625], [80.30625, 13.2099609375], [80.305859375, 13.2099609375], [80.305859375, 13.21044921875], [80.30546875, 13.21044921875], [80.30546875, 13.2109375], [80.305078125, 13.2109375], [80.305078125, 13.21142578125], [80.3046875, 13.21142578125], [80.3046875, 13.2119140625], [80.304296875, 13.2119140625], [80.304296875, 13.21240234375], [80.30390625, 13.21240234375], [80.30390625, 13.212890625], [80.303515625, 13.212890625], [80.303515625, 13.21337890625], [80.303125, 13.21337890625], [80.303125, 13.2138671875], [80.302734375, 13.2138671875], [80.302734375, 13.21435546875], [80.30234375, 13.21435546875], [80.30234375, 13.21484375], [80.301953125, 13.21484375], [80.301953125, 13.21533203125], [80.3015625, 13.21533203125], [80.3015625, 13.2158203125], [80.301171875, 13.2158203125], [80.301171875, 13.21630859375], [80.30078125, 13.21630859375], [80.30078125, 13.216796875], [80.300390625, 13.216796875], [80.300390625, 13.21728515625], [80.3, 13.21728515625], [80.3, 13.2177734375], [80.29921875, 13.2177734375], [80.29921875, 13.21826171875], [80.298828125, 13.21826171875], [80.298828125, 13.21875], [80.2984375, 13.21875], [80.2984375, 13.21923828125], [80.298046875, 13.21923828125], [80.298046875, 13.2197265625], [80.29765625, 13.2197265625], [80.29765625, 13.22021484375], [80.297265625, 13.22021484375], [80.297265625, 13.220703125], [80.296875, 13.220703125], [80.296875, 13.22119140625], [80.29609375, 13.22119140625], [80.29609375, 13.2216796875], [80.295703125, 13.2216796875], [80.295703125, 13.22216796875], [80.2953125, 13.22216796875], [80.2953125, 13.22265625], [80.294921875, 13.22265625], [80.294921875, 13.22314453125], [80.29453125, 13.22314453125], [80.29453125, 13.2236328125], [80.29375, 13.2236328125], [80.29375, 13.22412109375], [80.293359375, 13.22412109375], [80.293359375, 13.224609375], [80.29296875, 13.224609375], [80.29296875, 13.22509765625], [80.2921875, 13.22509765625], [80.2921875, 13.2255859375], [80.291796875, 13.2255859375], [80.291796875, 13.22607421875], [80.291015625, 13.22607421875], [80.291015625, 13.2265625], [80.290625, 13.2265625], [80.290625, 13.22705078125], [80.28984375, 13.22705078125], [80.28984375, 13.2275390625], [80.2890625, 13.2275390625], [80.2890625, 13.22802734375], [80.288671875, 13.22802734375], [80.288671875, 13.228515625], [80.287890625, 13.228515625], [80.287890625, 13.22900390625], [80.28671875, 13.22900390625], [80.28671875, 13.2294921875], [80.2859375, 13.2294921875], [80.2859375, 13.22998046875], [80.284375, 13.22998046875], [80.284375, 13.23046875], [80.282421875, 13.23046875]]]}}]}