{
  "type": "FeatureCollection",
  "features": [
    {
      "type": "Feature",
      "properties": {
        "class": "drift_uncertainty_envelope",
        "origin": [
          80.41271206103805,
          13.274952636456051
        ],
        "diffusion_coefficient_D": 10.0,
        "time_window_hours": 8.0,
        "sigma_diffusion_m": 758.95,
        "semi_major_m": 3249.7,
        "semi_minor_m": 1517.9,
        "orientation_deg": 246.4,
        "description": "8-hour backward drift uncertainty envelope (D=10 m^2/s)"
      },
      "geometry": {
        "type": "Polygon",
        "coordinates": [
          [
            [
              80.4007062371187,
              13.248201326593367
            ],
            [
              80.40202243453172,
              13.247795163560598
            ],
            [
              80.40344157889155,
              13.247650541837595
            ],
            [
              80.40495000306221,
              13.24776885421061
            ],
            [
              80.40653318009436,
              13.248148961266818
            ],
            [
              80.40817586312771,
              13.248787202367476
            ],
            [
              80.40986223222667,
              13.249677430901889
            ],
            [
              80.41157604673496,
              13.250811073482621
            ],
            [
              80.413300801682,
              13.252177212511908
            ],
            [
              80.41501988673481,
              13.25376269132409
            ],
            [
              80.41671674616455,
              13.255552240891495
            ],
            [
              80.41837503828737,
              13.257528626873523
            ],
            [
              80.41997879284355,
              13.259672815592761
            ],
            [
              80.42151256480007,
              13.261964157339714
            ],
            [
              80.4229615830945,
              13.264380585240781
            ],
            [
              80.42431189288857,
              13.266898827774323
            ],
            [
              80.42555048996081,
              13.26949463288813
            ],
            [
              80.42666544594432,
              13.272143001559943
            ],
            [
              80.4276460232035,
              13.27481842855171
            ],
            [
              80.42848277824328,
              13.27749514803896
            ],
            [
              80.42916765265522,
              13.280147381749789
            ],
            [
              80.42969405072435,
              13.282749587223702
            ],
            [
              80.4300569029495,
              13.285276703799477
            ],
            [
              80.43025271486539,
              13.287704393963024
            ],
            [
              80.43027960069622,
              13.29000927773096
            ],
            [
              80.43013730151675,
              13.292169157812621
            ],
            [
              80.42982718774587,
              13.29416323338211
            ],
            [
              80.42935224594872,
              13.29597230040162
            ],
            [
              80.42871705007441,
              13.297578936566818
            ],
            [
              80.42792771740648,
              13.298967669093155
            ],
            [
              80.42699184965,
              13.300125123727247
            ],
            [
              80.42591845972305,
              13.301040153548232
            ],
            [
              80.4247178849574,
              13.301703946318735
            ],
            [
              80.42340168754438,
              13.302110109351505
            ],
            [
              80.42198254318455,
              13.302254731074507
            ],
            [
              80.42047411901389,
              13.302136418701492
            ],
            [
              80.41889094198174,
              13.301756311645285
            ],
            [
              80.41724825894839,
              13.301118070544627
            ],
            [
              80.41556188984943,
              13.300227842010214
            ],
            [
              80.41384807534114,
              13.299094199429481
            ],
            [
              80.4121233203941,
              13.297728060400194
            ],
            [
              80.41040423534129,
              13.296142581588013
            ],
            [
              80.40870737591155,
              13.294353032020608
            ],
            [
              80.40704908378873,
              13.29237664603858
            ],
            [
              80.40544532923255,
              13.290232457319341
            ],
            [
              80.40391155727603,
              13.287941115572389
            ],
            [
              80.4024625389816,
              13.285524687671321
            ],
            [
              80.40111222918753,
              13.28300644513778
            ],
            [
              80.39987363211529,
              13.280410640023973
            ],
            [
              80.39875867613178,
              13.27776227135216
            ],
            [
              80.3977780988726,
              13.275086844360393
            ],
            [
              80.39694134383282,
              13.272410124873142
            ],
            [
              80.39625646942088,
              13.269757891162314
            ],
            [
              80.39573007135175,
              13.267155685688401
            ],
            [
              80.3953672191266,
              13.264628569112626
            ],
            [
              80.39517140721071,
              13.262200878949079
            ],
            [
              80.39514452137988,
              13.259895995181143
            ],
            [
              80.39528682055935,
              13.257736115099481
            ],
            [
              80.39559693433023,
              13.255742039529993
            ],
            [
              80.39607187612738,
              13.253932972510482
            ],
            [
              80.39670707200169,
              13.252326336345284
            ],
            [
              80.39749640466962,
              13.250937603818947
            ],
            [
              80.3984322724261,
              13.249780149184856
            ],
            [
              80.39950566235305,
              13.24886511936387
            ],
            [
              80.4007062371187,
              13.248201326593367
            ]
          ]
        ]
      }
    }
  ]
}