{
  "type": "FeatureCollection",
  "features": [
    {
      "type": "Feature",
      "properties": {
        "forecast_hours": 1,
        "horizon": "+1h",
        "class": "forecast_envelope",
        "center": [
          80.34043039632331,
          13.114283361865482
        ],
        "semi_major_m": 907.4,
        "semi_minor_m": 686.7,
        "description": "+1h Forward Drift Uncertainty Envelope"
      },
      "geometry": {
        "type": "Polygon",
        "coordinates": [
          [
            [
              80.33701841288767,
              13.106839848632674
            ],
            [
              80.33821224899503,
              13.10649231573634
            ],
            [
              80.33949132726026,
              13.106444188373477
            ],
            [
              80.34080649342295,
              13.106697316051655
            ],
            [
              80.34210720638501,
              13.107241971216153
            ],
            [
              80.34334348047676,
              13.108057223074448
            ],
            [
              80.34446780637818,
              13.109111741954825
            ],
            [
              80.34543697687539,
              13.11036500328809
            ],
            [
              80.34621374728971,
              13.111768844944041
            ],
            [
              80.34676826676974,
              13.113269318075128
            ],
            [
              80.34707922544283,
              13.114808760340395
            ],
            [
              80.34713467334156,
              13.11632801183692
            ],
            [
              80.34693247963428,
              13.117768688581693
            ],
            [
              80.34648041451176,
              13.119075426175357
            ],
            [
              80.34579585058316,
              13.120198007425014
            ],
            [
              80.34490509525634,
              13.121093292162788
            ],
            [
              80.34384237975895,
              13.12172687509829
            ],
            [
              80.34264854365159,
              13.122074407994624
            ],
            [
              80.34136946538636,
              13.122122535357487
            ],
            [
              80.34005429922368,
              13.12186940767931
            ],
            [
              80.33875358626162,
              13.121324752514811
            ],
            [
              80.33751731216987,
              13.120509500656516
            ],
            [
              80.33639298626845,
              13.119454981776139
            ],
            [
              80.33542381577124,
              13.118201720442874
            ],
            [
              80.33464704535692,
              13.116797878786922
            ],
            [
              80.33409252587688,
              13.115297405655836
            ],
            [
              80.3337815672038,
              13.113757963390569
            ],
            [
              80.33372611930507,
              13.112238711894044
            ],
            [
              80.33392831301235,
              13.110798035149271
            ],
            [
              80.33438037813487,
              13.109491297555607
            ],
            [
              80.33506494206347,
              13.10836871630595
            ],
            [
              80.33595569739029,
              13.107473431568176
            ],
            [
              80.33701841288767,
              13.106839848632674
            ]
          ]
        ]
      }
    },
    {
      "type": "Feature",
      "properties": {
        "forecast_hours": 1,
        "horizon": "+1h",
        "class": "forecast_center",
        "name": "+1h Horizon Center",
        "coordinates": [
          80.34043039632331,
          13.114283361865482
        ]
      },
      "geometry": {
        "type": "Point",
        "coordinates": [
          80.34043039632331,
          13.114283361865482
        ]
      }
    },
    {
      "type": "Feature",
      "properties": {
        "forecast_hours": 2,
        "horizon": "+2h",
        "class": "forecast_envelope",
        "center": [
          80.33212848132585,
          13.096173408577663
        ],
        "semi_major_m": 1350.5,
        "semi_minor_m": 908.9,
        "description": "+2h Forward Drift Uncertainty Envelope"
      },
      "geometry": {
        "type": "Polygon",
        "coordinates": [
          [
            [
              80.32705092137648,
              13.085095492581667
            ],
            [
              80.32864190637915,
              13.08465898606196
            ],
            [
              80.33036687850172,
              13.08466497234217
            ],
            [
              80.33215954803292,
              13.085113221372902
            ],
            [
              80.33395102368797,
              13.08598650719529
            ],
            [
              80.33567246006216,
              13.087251269924922
            ],
            [
              80.33725770332099,
              13.088858905439386
            ],
            [
              80.33864583345503,
              13.090747633207434
            ],
            [
              80.33978350540174,
              13.092844870480148
            ],
            [
              80.3406269990662,
              13.095070021605286
            ],
            [
              80.34114389945991,
              13.097337575272984
            ],
            [
              80.34131434239065,
              13.099560390667454
            ],
            [
              80.34113177783215,
              13.101653046239656
            ],
            [
              80.34060322163802,
              13.103535122409522
            ],
            [
              80.33974898592638,
              13.105134292045328
            ],
            [
              80.33860189849656,
              13.106389099954791
            ],
            [
              80.33720604127522,
              13.107251324573658
            ],
            [
              80.33561505627256,
              13.107687831093365
            ],
            [
              80.33389008414999,
              13.107681844813156
            ],
            [
              80.33209741461879,
              13.107233595782423
            ],
            [
              80.33030593896373,
              13.106360309960035
            ],
            [
              80.32858450258955,
              13.105095547230404
            ],
            [
              80.32699925933072,
              13.10348791171594
            ],
            [
              80.32561112919667,
              13.101599183947892
            ],
            [
              80.32447345724997,
              13.099501946675177
            ],
            [
              80.3236299635855,
              13.097276795550039
            ],
            [
              80.3231130631918,
              13.095009241882341
            ],
            [
              80.32294262026106,
              13.092786426487871
            ],
            [
              80.32312518481956,
              13.090693770915669
            ],
            [
              80.32365374101369,
              13.088811694745804
            ],
            [
              80.32450797672533,
              13.087212525109997
            ],
            [
              80.32565506415514,
              13.085957717200534
            ],
            [
              80.32705092137648,
              13.085095492581667
            ]
          ]
        ]
      }
    },
    {
      "type": "Feature",
      "properties": {
        "forecast_hours": 2,
        "horizon": "+2h",
        "class": "forecast_center",
        "name": "+2h Horizon Center",
        "coordinates": [
          80.33212848132585,
          13.096173408577663
        ]
      },
      "geometry": {
        "type": "Point",
        "coordinates": [
          80.33212848132585,
          13.096173408577663
        ]
      }
    },
    {
      "type": "Feature",
      "properties": {
        "forecast_hours": 4,
        "horizon": "+4h",
        "class": "forecast_envelope",
        "center": [
          80.31552465133095,
          13.059953502002026
        ],
        "semi_major_m": 2106.4,
        "semi_minor_m": 1223.3,
        "description": "+4h Forward Drift Uncertainty Envelope"
      },
      "geometry": {
        "type": "Polygon",
        "coordinates": [
          [
            [
              80.30760617506327,
              13.042674907824999
            ],
            [
              80.30976796319219,
              13.042132957660648
            ],
            [
              80.31215097761789,
              13.042275841021459
            ],
            [
              80.3146636404324,
              13.043098066980008
            ],
            [
              80.31720939141287,
              13.044568037853816
            ],
            [
              80.31969039877683,
              13.046629263486572
            ],
            [
              80.3220113188026,
              13.049202532133156
            ],
            [
              80.32408295983521,
              13.05218895452259
            ],
            [
              80.32582570987155,
              13.055473764117249
            ],
            [
              80.32717259600508,
              13.058930727526555
            ],
            [
              80.32807185815703,
              13.062426995585373
            ],
            [
              80.3284889381872,
              13.065828208672936
            ],
            [
              80.32840780794395,
              13.069003660077708
            ],
            [
              80.32783158521701,
              13.071831318983019
            ],
            [
              80.32678241392264,
              13.074202520042908
            ],
            [
              80.3253006131253,
              13.076026139330427
            ],
            [
              80.32344312759862,
              13.077232096179053
            ],
            [
              80.3212813394697,
              13.077774046343404
            ],
            [
              80.318898325044,
              13.077631162982593
            ],
            [
              80.3163856622295,
              13.076808937024044
            ],
            [
              80.31383991124902,
              13.075338966150236
            ],
            [
              80.31135890388506,
              13.07327774051748
            ],
            [
              80.3090379838593,
              13.070704471870895
            ],
            [
              80.30696634282668,
              13.067718049481462
            ],
            [
              80.30522359279034,
              13.064433239886803
            ],
            [
              80.30387670665681,
              13.060976276477497
            ],
            [
              80.30297744450486,
              13.057480008418677
            ],
            [
              80.30256036447469,
              13.054078795331115
            ],
            [
              80.30264149471795,
              13.050903343926343
            ],
            [
              80.30321771744488,
              13.048075685021033
            ],
            [
              80.30426688873925,
              13.045704483961144
            ],
            [
              80.3057486895366,
              13.043880864673625
            ],
            [
              80.30760617506327,
              13.042674907824999
            ]
          ]
        ]
      }
    },
    {
      "type": "Feature",
      "properties": {
        "forecast_hours": 4,
        "horizon": "+4h",
        "class": "forecast_center",
        "name": "+4h Horizon Center",
        "coordinates": [
          80.31552465133095,
          13.059953502002026
        ]
      },
      "geometry": {
        "type": "Point",
        "coordinates": [
          80.31552465133095,
          13.059953502002026
        ]
      }
    },
    {
      "type": "Feature",
      "properties": {
        "class": "forecast_centerline",
        "name": "centerline",
        "description": "Trajectory centerline connecting slick centroid to +1h, +2h, and +4h forecast horizon centers"
      },
      "geometry": {
        "type": "LineString",
        "coordinates": [
          [
            80.34873231132076,
            13.132393315153301
          ],
          [
            80.34043039632331,
            13.114283361865482
          ],
          [
            80.33212848132585,
            13.096173408577663
          ],
          [
            80.31552465133095,
            13.059953502002026
          ]
        ]
      }
    }
  ]
}